SAUDISAT 1C (SO-50)     
1 27607U 02058C   26193.77913648  .00000397  00000+0  64839-4 0  9995
2 27607  64.5517  49.8013 0074600 257.7275 101.5471 14.83095806268255
SAUDISAT 2              
1 28371U 04025F   26193.58127125  .00000111  00000+0  35825-4 0  9993
2 28371  98.5519 194.2206 0023929 216.4275 143.5295 14.56697427169440
SAUDISAT 3              
1 31118U 07012B   26193.82740336  .00000112  00000+0  26287-4 0  9990
2 31118  98.1466 144.2466 0015444 141.7880 218.4425 14.71439581 31513
PISAT                   
1 41784U 16059B   26193.55077442  .00000470  00000+0  87652-4 0  9992
2 41784  97.8189 192.9148 0030347 122.9134 237.4998 14.69026784523460
FLYING LAPTOP           
1 42831U 17042G   26193.84730935  .00002325  00000+0  18449-3 0  9992
2 42831  97.4789 348.4132 0019817  39.9468 320.3210 15.01304050490300
SALSAT                  
1 46495U 20068K   26192.54062004  .00004447  00000+0  15528-3 0  9997
2 46495  97.8855 197.0941 0008823 206.5203 153.5586 15.30139435319080
